- !!map
  id:                 21
  name:               Huygen
  radius:             670000
  atmosphereAlt:      180000
  mass:               9.893633455942946e+21
  stdGravParam:       660330777750
  soi:                12375834.324228296
  orbit:
    semiMajorAxis:    187500000
    eccentricity:     0.025
    inclination:      0.75
    argOfPeriapsis:   60
    ascNodeLongitude: 150
  meanAnomaly0:       1.5707963267948966
  epoch:              0
  orbiting:           18
  color:              0xcc7f33

- !!map
  id:                 22
  name:               Riga
  radius:             750000
  atmosphereAlt:      90000
  mass:               1.4876815733485161e+22
  stdGravParam:       992923312500
  soi:                24039593.344883334
  orbit:
    semiMajorAxis:    309380000
    eccentricity:     0.03
    inclination:      0.5
    argOfPeriapsis:   105
    ascNodeLongitude: 90
  meanAnomaly0:       3.141592653589793
  epoch:              0
  orbiting:           18
  color:              0x7f99b2

- !!map
  id:                 23
  name:               Talos
  radius:             500000
  mass:               4.040616618971278e+21
  stdGravParam:       269682874999.99997
  soi:                26557738.368167486
  orbit:
    semiMajorAxis:    575680000
    eccentricity:     0.04
    inclination:      1
    argOfPeriapsis:   285
    ascNodeLongitude: 180
  meanAnomaly0:       1.5707963267948966
  epoch:              0
  orbiting:           18
  color:              0xb27f99

- !!map
  id:                 24
  name:               Eeloo
  radius:             600000
  atmosphereAlt:      75000
  mass:               7.934301724525419e+21
  stdGravParam:       529559099999.99994
  soi:                621195295.7160125
  orbit:
    semiMajorAxis:    471171300000
    eccentricity:     0.26
    inclination:      6.15
    argOfPeriapsis:   260
    ascNodeLongitude: 50
  meanAnomaly0:       3.54
  epoch:              0
  orbiting:           0
  color:              0x686a6a

- !!map
  id:                 25
  name:               Celes
  radius:             200000
  mass:               235090421467419840000
  stdGravParam:       15690640000
  soi:                7782472.75760169
  orbit:
    semiMajorAxis:    31800000
    eccentricity:     0.05
    inclination:      10
    argOfPeriapsis:   270
    ascNodeLongitude: 100
  meanAnomaly0:       0
  epoch:              0
  orbiting:           24
  color:              0xb2997f

- !!map
  id:                 26
  name:               Tam
  radius:             10000
  mass:               51426029695998090
  stdGravParam:       3432327.5
  soi:                543716.5778129243
  orbit:
    semiMajorAxis:    64670000
    eccentricity:     0.025
    inclination:      9.5
    argOfPeriapsis:   210
    ascNodeLongitude: 105
  meanAnomaly0:       3.141592653589793
  epoch:              0
  orbiting:           24
  color:              0x664c33

- !!map
  id:                 27
  name:               Hamek
  radius:             450000
  mass:               2.975363146697032e+21
  stdGravParam:       198584662500
  soi:                469438544.92444366
  orbit:
    semiMajorAxis:    527129000000
    eccentricity:     0.1
    inclination:      4
    argOfPeriapsis:   175
    ascNodeLongitude: 165
  meanAnomaly0:       4.7
  epoch:              0
  orbiting:           0
  color:              0x8c5972

- !!map
  id:                 28
  name:               Nara
  radius:             3600000
  atmosphereAlt:      170000
  mass:               1.9042324138861007e+24
  stdGravParam:       127094184000000
  soi:                20213316972.17062
  orbit:
    semiMajorAxis:    1712000000000
    eccentricity:     0.35
    inclination:      20
    argOfPeriapsis:   150
    ascNodeLongitude: 90
  meanAnomaly0:       2.5
  epoch:              0
  orbiting:           0
  color:              0x4c7f7f

- !!map
  id:                 29
  name:               Amos
  radius:             320000
  mass:               902747218434892100000
  stdGravParam:       60252057600
  soi:                2615741.8427581107
  orbit:
    semiMajorAxis:    55880000
    eccentricity:     0.01
    inclination:      0.5
    argOfPeriapsis:   345
    ascNodeLongitude: 180
  meanAnomaly0:       3.141592653589793
  epoch:              0
  orbiting:           28
  color:              0x99b27f

- !!map
  id:                 30
  name:               Enon
  radius:             700000
  mass:               1.0799466236159598e+22
  stdGravParam:       720788775000
  soi:                15913823.574609488
  orbit:
    semiMajorAxis:    125980000
    eccentricity:     0.015
    inclination:      0.2
    argOfPeriapsis:   0
    ascNodeLongitude: 270
  meanAnomaly0:       3.141592653589793
  epoch:              0
  orbiting:           28
  color:              0x7f99b2

- !!map
  id:                 31
  name:               Prax
  radius:             110000
  mass:               35557426246947250000
  stdGravParam:       2373209300
  soi:                9652598.244948449
  orbit:
    semiMajorAxis:    751900000
    eccentricity:     0.4
    inclination:      17
    argOfPeriapsis:   100
    ascNodeLongitude: 95
  meanAnomaly0:       0
  epoch:              0
  orbiting:           28
  color:              0xb2997f
